OBJECT_NAME,OBJECT_ID,EPOCH,MEAN_MOTION,ECCENTRICITY,INCLINATION,RA_OF_ASC_NODE,ARG_OF_PERICENTER,MEAN_ANOMALY,EPHEMERIS_TYPE,CLASSIFICATION_TYPE,NORAD_CAT_ID,ELEMENT_SET_NO,REV_AT_EPOCH,BSTAR,MEAN_MOTION_DOT,MEAN_MOTION_DDOT
ONEWEB-0579,2023-043Y,2026-07-11T02:09:32.740128,13.21827892,.0002083,87.9243,239.2147,104.4142,255.7223,0,U,56068,999,16140,.11268E-3,.6E-6,0
ONEWEB-0581,2023-043Z,2026-07-11T00:19:09.919200,13.16595682,.0001562,87.9078,224.0521,87.0931,273.0378,0,U,56069,999,16209,.22129E-3,.97E-6,0
ONEWEB-0609,2023-043AA,2026-07-11T03:20:47.254848,13.15546932,.0002108,87.8986,254.4396,98.5439,261.5930,0,U,56070,999,15958,.74105E-4,.41E-6,0
ONEWEB-0613,2023-043AB,2026-07-11T03:17:22.303680,13.15547630,.0002178,87.8985,254.4518,103.6165,256.5208,0,U,56071,999,15958,-.19628E-3,-.61E-6,0
ONEWEB-0630,2023-043AC,2026-07-10T03:26:43.977984,13.15549685,.00021435,87.8996,254.6242,105.9938,254.1429,0,U,56072,999,15944,-.21444105E-3,-.68E-6,0
ONEWEB-0632,2023-043AD,2026-07-11T03:03:41.266080,13.15547886,.0001922,87.8985,254.4437,96.9439,263.1910,0,U,56073,999,15957,-.3167E-3,-.106E-5,0
ONEWEB-0633,2023-043AE,2026-07-11T02:54:33.656832,13.15548383,.0002382,87.8995,254.4224,105.8838,254.2555,0,U,56074,999,15955,-.33017E-3,-.111E-5,0
ONEWEB-0634,2023-043AF,2026-07-10T13:47:22.053120,13.15548035,.0002368,87.8991,254.5694,93.7845,266.3556,0,U,56075,999,15947,-.69366E-4,-.13E-6,0
ONEWEB-0635,2023-043AG,2026-07-11T02:27:10.653696,13.15547943,.0001811,87.8995,254.4292,97.8625,262.2711,0,U,56076,999,15957,.11413E-3,.56E-6,0
ONEWEB-0636,2023-043AH,2026-07-11T04:05:17.013120,13.15547481,.0001865,87.8994,254.4214,95.6225,264.5118,0,U,56077,999,15956,.34125E-3,.141E-5,0
ONEWEB-0637,2023-043AJ,2026-07-10T04:12:22.190976,13.15548072,.00020209,87.8987,254.6347,89.3780,270.7582,0,U,56078,999,15945,.26706494E-3,.113E-5,0
ONEWEB-0647,2023-043AK,2026-07-09T09:50:18.071232,13.15548507,.00018807,87.8990,254.8001,99.6489,260.4854,0,U,56079,999,15934,.12768829E-3,.61E-6,0
ONEWEB-0651,2023-043AL,2026-07-11T03:42:28.698048,13.15547952,.0001877,87.8986,254.4453,92.9952,267.1393,0,U,56080,999,16077,.56798E-3,.227E-5,0
ONEWEB-0718,2023-043AM,2026-07-10T03:51:50.257440,13.15548872,.00025223,87.8988,254.6239,95.9889,264.1529,0,U,56081,999,15945,.3855471E-3,.158E-5,0
ONEWEB-0561,2023-068A,2026-07-10T03:38:49.771680,13.20769812,.00017388,87.9193,269.8669,102.1474,257.9855,0,U,56710,999,15253,.47662483E-4,.32E-6,0
ONEWEB-0668,2023-068B,2026-07-11T01:32:07.414944,13.16594706,.0002409,87.9079,224.0301,84.2240,275.9166,0,U,56711,999,15492,.16744E-3,.77E-6,0
ONEWEB-0676,2023-068C,2026-07-11T01:43:31.874016,13.16594030,.0001746,87.9079,224.0344,92.3176,267.8155,0,U,56712,999,15484,.32556E-3,.137E-5,0
ONEWEB-0677,2023-068D,2026-07-11T04:49:08.950656,13.20771501,.0001968,87.9188,269.6497,87.8982,272.2377,0,U,56713,999,15297,-.13364E-3,-.41E-6,0
ONEWEB-0678,2023-068E,2026-07-11T04:39:31.061664,13.15547951,.000198,87.8997,254.4123,105.9789,254.1560,0,U,56714,999,15244,-.14498E-3,-.42E-6,0
ONEWEB-0679,2023-068F,2026-07-10T01:01:34.905504,13.16593822,.00020931,87.9080,224.2301,78.0334,282.1031,0,U,56715,999,15473,-.16427709E-3,-.5E-6,0
ONEWEB-0680,2023-068G,2026-07-11T02:11:58.548768,13.21825234,.0002385,87.9246,239.2150,84.2560,275.8846,0,U,56716,999,15425,-.3499E-3,-.131E-5,0
ONEWEB-0681,2023-068H,2026-07-10T13:01:06.073824,13.21827363,.0001097,87.9265,239.3264,82.5766,277.5493,0,U,56717,999,15417,.7359E-4,.43E-6,0
ONEWEB-0682,2023-068J,2026-07-10T03:40:26.016096,13.15547876,.00023509,87.8993,254.6199,85.1768,274.9631,0,U,56718,999,15247,.14469051E-3,.67E-6,0
ONEWEB-0683,2023-068K,2026-07-11T03:58:26.798016,13.15548135,.0002251,87.9002,254.4179,95.9957,264.1430,0,U,56719,999,15257,.41408E-3,.169E-5,0
ONEWEB-0684,2023-068L,2026-07-11T02:20:19.845024,13.15549322,.0003013,87.8990,254.4221,129.5589,230.5808,0,U,56720,999,15239,.40362E-3,.165E-5,0
ONEWEB-0686,2023-068M,2026-07-11T01:36:41.348736,13.16594302,.0002478,87.9069,224.0490,98.4971,261.6441,0,U,56721,999,15485,-.71655E-4,-.15E-6,0
ONEWEB-0694,2023-068N,2026-07-11T01:45:48.462912,13.16593323,.0002373,87.9090,224.0159,83.9829,276.1572,0,U,56722,999,15491,.20728E-3,.92E-6,0
ONEWEB-0696,2023-068P,2026-07-11T03:08:14.557920,13.15549503,.0001998,87.8985,254.4517,111.5845,248.5498,0,U,56723,999,15251,-.28755E-3,-.95E-6,0
ONEWEB-0703,2023-068Q,2026-07-11T03:21:55.852992,13.15547546,.0001608,87.8985,254.4308,121.7656,238.3631,0,U,56724,999,15240,-.11478E-3,-.3E-6,0
ONEWEB-0721,2023-068R,2026-07-11T02:58:19.115040,13.22470881,.0001762,86.6749,77.8754,79.6569,280.4763,0,U,56725,999,16110,-.33164E-4,.1E-7,0
