ONEWEB-0579             
1 56068U 23043Y   26192.08996227  .00000060  00000+0  11268-3 0  9996
2 56068  87.9243 239.2147 0002083 104.4142 255.7223 13.21827892161408
ONEWEB-0581             
1 56069U 23043Z   26192.01330925  .00000097  00000+0  22129-3 0  9995
2 56069  87.9078 224.0521 0001562  87.0931 273.0378 13.16595682162099
ONEWEB-0609             
1 56070U 23043AA  26192.13943582  .00000041  00000+0  74105-4 0  9990
2 56070  87.8986 254.4396 0002108  98.5439 261.5930 13.15546932159581
ONEWEB-0613             
1 56071U 23043AB  26192.13706370 -.00000061  00000+0 -19628-3 0  9995
2 56071  87.8985 254.4518 0002178 103.6165 256.5208 13.15547630159586
ONEWEB-0630             
1 56072U 23043AC  26191.14356456 -.00000068  00000+0 -21444-3 0  9998
2 56072  87.8996 254.6242 0002143 105.9938 254.1429 13.15549685159446
ONEWEB-0632             
1 56073U 23043AD  26192.12756095 -.00000106  00000+0 -31670-3 0  9996
2 56073  87.8985 254.4437 0001922  96.9439 263.1910 13.15547886159578
ONEWEB-0633             
1 56074U 23043AE  26192.12122288 -.00000111  00000+0 -33017-3 0  9991
2 56074  87.8995 254.4224 0002382 105.8838 254.2555 13.15548383159555
ONEWEB-0634             
1 56075U 23043AF  26191.57456080 -.00000013  00000+0 -69366-4 0  9998
2 56075  87.8991 254.5694 0002368  93.7845 266.3556 13.15548035159471
ONEWEB-0635             
1 56076U 23043AG  26192.10220664  .00000056  00000+0  11413-3 0  9990
2 56076  87.8995 254.4292 0001811  97.8625 262.2711 13.15547943159578
ONEWEB-0636             
1 56077U 23043AH  26192.17033580  .00000141  00000+0  34125-3 0  9997
2 56077  87.8994 254.4214 0001865  95.6225 264.5118 13.15547481159565
ONEWEB-0637             
1 56078U 23043AJ  26191.17525684  .00000113  00000+0  26706-3 0  9993
2 56078  87.8987 254.6347 0002020  89.3780 270.7582 13.15548072159456
ONEWEB-0647             
1 56079U 23043AK  26190.40993138  .00000061  00000+0  12769-3 0  9998
2 56079  87.8990 254.8001 0001880  99.6489 260.4854 13.15548507159342
ONEWEB-0651             
1 56080U 23043AL  26192.15449882  .00000227  00000+0  56798-3 0  9990
2 56080  87.8986 254.4453 0001877  92.9952 267.1393 13.15547952160777
ONEWEB-0718             
1 56081U 23043AM  26191.16099835  .00000158  00000+0  38555-3 0  9994
2 56081  87.8988 254.6239 0002522  95.9889 264.1529 13.15548872159457
ONEWEB-0561             
1 56710U 23068A   26191.15196495  .00000032  00000+0  47662-4 0  9990
2 56710  87.9193 269.8669 0001738 102.1474 257.9855 13.20769812152538
ONEWEB-0668             
1 56711U 23068B   26192.06397471  .00000077  00000+0  16744-3 0  9994
2 56711  87.9079 224.0301 0002409  84.2240 275.9166 13.16594706154928
ONEWEB-0676             
1 56712U 23068C   26192.07189669  .00000137  00000+0  32556-3 0  9990
2 56712  87.9079 224.0344 0001746  92.3176 267.8155 13.16594030154846
ONEWEB-0677             
1 56713U 23068D   26192.20079804 -.00000041  00000+0 -13364-3 0  9997
2 56713  87.9188 269.6497 0001968  87.8982 272.2377 13.20771501152975
ONEWEB-0678             
1 56714U 23068E   26192.19410951 -.00000042  00000+0 -14498-3 0  9998
2 56714  87.8997 254.4123 0001980 105.9789 254.1560 13.15547951152441
ONEWEB-0679             
1 56715U 23068F   26191.04276511 -.00000050  00000+0 -16428-3 0  9998
2 56715  87.9080 224.2301 0002093  78.0334 282.1031 13.16593822154738
ONEWEB-0680             
1 56716U 23068G   26192.09164987 -.00000131  00000+0 -34990-3 0  9992
2 56716  87.9246 239.2150 0002385  84.2560 275.8846 13.21825234154256
ONEWEB-0681             
1 56717U 23068H   26191.54243141  .00000043  00000+0  73590-4 0  9992
2 56717  87.9265 239.3264 0001097  82.5766 277.5493 13.21827363154176
ONEWEB-0682             
1 56718U 23068J   26191.15307889  .00000067  00000+0  14469-3 0  9995
2 56718  87.8993 254.6199 0002350  85.1768 274.9631 13.15547876152472
ONEWEB-0683             
1 56719U 23068K   26192.16558794  .00000169  00000+0  41408-3 0  9997
2 56719  87.9002 254.4179 0002251  95.9957 264.1430 13.15548135152578
ONEWEB-0684             
1 56720U 23068L   26192.09745191  .00000165  00000+0  40362-3 0  9994
2 56720  87.8990 254.4221 0003013 129.5589 230.5808 13.15549322152390
ONEWEB-0686             
1 56721U 23068M   26192.06714524 -.00000015  00000+0 -71655-4 0  9994
2 56721  87.9069 224.0490 0002478  98.4971 261.6441 13.16594302154853
ONEWEB-0694             
1 56722U 23068N   26192.07347758  .00000092  00000+0  20728-3 0  9994
2 56722  87.9090 224.0159 0002373  83.9829 276.1572 13.16593323154910
ONEWEB-0696             
1 56723U 23068P   26192.13072405 -.00000095  00000+0 -28755-3 0  9999
2 56723  87.8985 254.4517 0001998 111.5845 248.5498 13.15549503152510
ONEWEB-0703             
1 56724U 23068Q   26192.14022978 -.00000030  00000+0 -11478-3 0  9994
2 56724  87.8985 254.4308 0001608 121.7656 238.3631 13.15547546152409
ONEWEB-0721             
1 56725U 23068R   26192.12383235  .00000001  00000+0 -33164-4 0  9993
2 56725  86.6749  77.8754 0001762  79.6569 280.4763 13.22470881161108
